0 COSMOS 1354
1 13148U 82037A   13282.78223531  .00000112  00000-0  51726-4 0  7531
2 13148 074.0372 275.4796 0008285 132.6771 291.8684 14.31523180641807
0 COSMOS 1354
1 13148U 82037A   13284.17847318  .00000111  00000-0  51529-4 0  7542
2 13148 074.0372 272.9350 0008265 129.1823 287.9689 14.31523929642007
0 COSMOS 1354
1 13148U 82037A   13285.44775675  .00000065  00000-0  34093-4 0  7555
2 13148 074.0373 270.6217 0008244 126.2277 349.5379 14.31524353642185
0 COSMOS 1354
1 13148U 82037A   13286.50052201  .00000069  00000-0  35805-4 0  7563
2 13148 074.0374 268.7030 0008224 123.9794 015.0267 14.31524542642331
0 COSMOS 1354
1 13148U 82037A   13287.67173632  .00000110  00000-0  51019-4 0  7577
2 13148 074.0377 266.5684 0008203 121.3592 291.0687 14.31524892642509
0 COSMOS 1354
1 13148U 82037A   13289.07203289  .00000110  00000-0  50979-4 0  7580
2 13148 074.0380 264.0164 0008198 117.9344 308.0165 14.31525632642703
0 COSMOS 1354
1 13148U 82037A   13290.11800291  .00000118  00000-0  54024-4 0  7597
2 13148 074.0382 262.1102 0008179 115.5765 298.6146 14.31525856642853
0 COSMOS 1354
1 13148U 82037A   13292.07362272  .00000158  00000-0  69207-4 0  7601
2 13148 074.0385 258.5464 0008154 111.0095 297.4205 14.31525960643137
0 COSMOS 1354
1 13148U 82037A   13293.20151485  .00000175  00000-0  75493-4 0  7613
2 13148 074.0386 256.4912 0008138 108.3535 350.3337 14.31526268643297
0 COSMOS 1354
1 13148U 82037A   13294.46718965  .00000162  00000-0  70632-4 0  7621
2 13148 074.0386 254.1849 0008146 105.3177 033.4047 14.31527170643479
0 COSMOS 1354
1 13148U 82037A   13295.84195557  .00000168  00000-0  73047-4 0  7630
2 13148 074.0386 251.6798 0008159 102.0555 278.6825 14.31527693643660
